[{"OBJECT_NAME":"GHGSAT-C5","OBJECT_ID":"2022-057N","EPOCH":"2026-03-09T21:50:12.501024","MEAN_MOTION":15.32921902,"ECCENTRICITY":0.00082696,"INCLINATION":97.6522,"RA_OF_ASC_NODE":212.4963,"ARG_OF_PERICENTER":109.8004,"MEAN_ANOMALY":250.413,"EPHEMERIS_TYPE":0,"CLASSIFICATION_TYPE":"U","NORAD_CAT_ID":52744,"ELEMENT_SET_NO":999,"REV_AT_EPOCH":21032,"BSTAR":0.00029214604,"MEAN_MOTION_DOT":9.218e-5,"MEAN_MOTION_DDOT":0},{"OBJECT_NAME":"STARLINK-32240","OBJECT_ID":"2024-144P","EPOCH":"2026-03-09T16:58:44.041152","MEAN_MOTION":15.3018597,"ECCENTRICITY":9.07e-5,"INCLINATION":53.1587,"RA_OF_ASC_NODE":216.924,"ARG_OF_PERICENTER":72.228,"MEAN_ANOMALY":287.882,"EPHEMERIS_TYPE":0,"CLASSIFICATION_TYPE":"U","NORAD_CAT_ID":60438,"ELEMENT_SET_NO":999,"REV_AT_EPOCH":8935,"BSTAR":2.6835217e-5,"MEAN_MOTION_DOT":4.36e-6,"MEAN_MOTION_DDOT":0}]
